ORBCOMM FM37            
1 33064U 08031E   25097.90456775  .00003351  00000+0  47200-3 0  9991
2 33064  48.4399 317.6929 0005132  72.7921 300.0641 14.79433952903644
ORBCOMM FM40            
1 33065U 08031F   25097.94532749  .00004340  00000+0  57318-3 0  9992
2 33065  48.4411 302.6878 0006283  87.0544  51.6793 14.81582651903747
VESSELSAT 1             
1 37840U 11058C   25097.82243602  .00000452  00000+0  10161-3 0  9999
2 37840  19.9606 159.6590 0013728 132.0082 228.1493 14.11334843696357
ORBCOMM FM109           
1 40086U 14040A   25097.88180261  .00001756  00000+0  41489-3 0  9991
2 40086  47.0044 348.3034 0001771   1.9391 358.1501 14.58027626570807
ORBCOMM FM107           
1 40087U 14040B   25097.91352595  .00001543  00000+0  36850-3 0  9997
2 40087  47.0060 349.1423 0001649 309.2219  50.8520 14.58087573570886
ORBCOMM FM106           
1 40088U 14040C   25098.19470234  .00002326  00000+0  42153-3 0  9993
2 40088  47.0585 175.5081 0015890 102.6758 257.5910 14.69226647573393
ORBCOMM FM104           
1 40090U 14040E   25097.89368260  .00001456  00000+0  36146-3 0  9995
2 40090  47.0068  22.0011 0016870 245.5980 114.3144 14.56509249570376
